STARLINK-1540
1 16051C 20055AA  21326.14982549  .00000915  00000-0  61329-4 0  3268
2 16051  53.0538 318.0745 0002036  53.3928  71.8506 15.06397984    11
